GLOBAL-2                
1 43812U 18099BG  26191.08876811  .00001788  00000+0  11744-3 0  9996
2 43812  97.3551 226.6497 0007678  81.0751 279.1347 15.08809515415360
GLOBAL-4                
1 44499U 19054E   26191.11304018  .00050072  00000+0  46569-3 0  9992
2 44499  45.0010 103.9034 0004429 154.8461 205.2653 15.66674455383950
GLOBAL-9                
1 47971U 21023G   26190.98256114  .00016735  00000+0  32520-3 0  9996
2 47971  44.9804 122.3181 0002789 131.1716 228.9415 15.47463869298477
GLOBAL-14               
1 49469U 21106A   26190.94389713  .00018818  00000+0  31133-3 0  9993
2 49469  42.0022 155.7272 0016799 188.6169 171.4389 15.51645108261664
GLOBAL-12               
1 49772U 21115BA  26190.90028410  .00028752  00000+0  42534-3 0  9995
2 49772  53.1953 295.2135 0002715  65.9128 294.2168 15.55093786259434
GLOBAL-13               
1 49773U 21115BB  26190.93275838  .00016030  00000+0  32059-3 0  9994
2 49773  53.1977 306.3894 0001229 154.7725 205.3344 15.46970341259289
GLOBAL-17               
1 49949U 21120A   26191.30661043  .00023252  00000+0  35863-3 0  9994
2 49949  41.9947 271.4038 0013554  53.2824 306.9264 15.53541201258493
GLOBAL-16               
1 49950U 21120B   26191.28765513  .00020638  00000+0  34574-3 0  9993
2 49950  41.9953 275.6920 0011873  41.7524 318.4225 15.51325662258437
GLOBAL-18               
1 52196U 22034B   26191.25869793  .00015344  00000+0  30602-3 0  9992
2 52196  52.9800 146.3065 0004308  11.3992 348.7110 15.47079635240539
GLOBAL-19               
1 55982U 23041B   26190.95267241  .00009716  00000+0  25562-3 0  9998
2 55982  42.0016  69.0757 0008779 183.2971 176.7812 15.38589343185432
GLOBAL-5                
1 55983U 23041C   26191.11521830  .00010072  00000+0  26462-3 0  9992
2 55983  42.0015  67.6543 0007626 180.1807 179.9031 15.38607292185468
