{"fetched_at":"2026-07-10T18:08:12.626Z","source":"https://celestrak.org/NORAD/elements/gp.php?NAME=GLOBAL&FORMAT=JSON","constellation":"blacksky-gen2","records":[{"OBJECT_NAME":"GLOBAL-2","OBJECT_ID":"2018-099BG","EPOCH":"2026-07-10T02:07:49.564704","CLASSIFICATION_TYPE":"U","MEAN_MOTION":15.08809515,"ECCENTRICITY":0.00076788,"INCLINATION":97.3551,"RA_OF_ASC_NODE":226.6497,"ARG_OF_PERICENTER":81.0751,"MEAN_ANOMALY":279.1347,"EPHEMERIS_TYPE":0,"NORAD_CAT_ID":43812,"ELEMENT_SET_NO":999,"REV_AT_EPOCH":41536,"BSTAR":0.00011743974,"MEAN_MOTION_DOT":0.00001788,"MEAN_MOTION_DDOT":0},{"OBJECT_NAME":"GLOBAL-4","OBJECT_ID":"2019-054E","EPOCH":"2026-07-10T02:42:46.671552","CLASSIFICATION_TYPE":"U","MEAN_MOTION":15.66674455,"ECCENTRICITY":0.00044297,"INCLINATION":45.001,"RA_OF_ASC_NODE":103.9034,"ARG_OF_PERICENTER":154.8461,"MEAN_ANOMALY":205.2653,"EPHEMERIS_TYPE":0,"NORAD_CAT_ID":44499,"ELEMENT_SET_NO":999,"REV_AT_EPOCH":38395,"BSTAR":0.0004656949,"MEAN_MOTION_DOT":0.00050072,"MEAN_MOTION_DDOT":0},{"OBJECT_NAME":"GLOBAL-9","OBJECT_ID":"2021-023G","EPOCH":"2026-07-09T23:34:53.282496","CLASSIFICATION_TYPE":"U","MEAN_MOTION":15.47463869,"ECCENTRICITY":0.0002789,"INCLINATION":44.9804,"RA_OF_ASC_NODE":122.3181,"ARG_OF_PERICENTER":131.1716,"MEAN_ANOMALY":228.9415,"EPHEMERIS_TYPE":0,"NORAD_CAT_ID":47971,"ELEMENT_SET_NO":999,"REV_AT_EPOCH":29847,"BSTAR":0.00032520203,"MEAN_MOTION_DOT":0.00016735,"MEAN_MOTION_DDOT":0},{"OBJECT_NAME":"GLOBAL-14","OBJECT_ID":"2021-106A","EPOCH":"2026-07-09T22:39:12.712032","CLASSIFICATION_TYPE":"U","MEAN_MOTION":15.51645108,"ECCENTRICITY":0.00167998,"INCLINATION":42.0022,"RA_OF_ASC_NODE":155.7272,"ARG_OF_PERICENTER":188.6169,"MEAN_ANOMALY":171.4389,"EPHEMERIS_TYPE":0,"NORAD_CAT_ID":49469,"ELEMENT_SET_NO":999,"REV_AT_EPOCH":26166,"BSTAR":0.00031133162,"MEAN_MOTION_DOT":0.00018818,"MEAN_MOTION_DDOT":0},{"OBJECT_NAME":"GLOBAL-12","OBJECT_ID":"2021-115BA","EPOCH":"2026-07-09T21:36:24.546240","CLASSIFICATION_TYPE":"U","MEAN_MOTION":15.55093786,"ECCENTRICITY":0.00027155,"INCLINATION":53.1953,"RA_OF_ASC_NODE":295.2135,"ARG_OF_PERICENTER":65.9128,"MEAN_ANOMALY":294.2168,"EPHEMERIS_TYPE":0,"NORAD_CAT_ID":49772,"ELEMENT_SET_NO":999,"REV_AT_EPOCH":25943,"BSTAR":0.00042534173,"MEAN_MOTION_DOT":0.00028752,"MEAN_MOTION_DDOT":0},{"OBJECT_NAME":"GLOBAL-13","OBJECT_ID":"2021-115BB","EPOCH":"2026-07-09T22:23:10.324032","CLASSIFICATION_TYPE":"U","MEAN_MOTION":15.46970341,"ECCENTRICITY":0.00012292,"INCLINATION":53.1977,"RA_OF_ASC_NODE":306.3894,"ARG_OF_PERICENTER":154.7725,"MEAN_ANOMALY":205.3344,"EPHEMERIS_TYPE":0,"NORAD_CAT_ID":49773,"ELEMENT_SET_NO":999,"REV_AT_EPOCH":25928,"BSTAR":0.00032059018,"MEAN_MOTION_DOT":0.0001603,"MEAN_MOTION_DDOT":0},{"OBJECT_NAME":"GLOBAL-17","OBJECT_ID":"2021-120A","EPOCH":"2026-07-10T07:21:31.141152","CLASSIFICATION_TYPE":"U","MEAN_MOTION":15.53541201,"ECCENTRICITY":0.00135549,"INCLINATION":41.9947,"RA_OF_ASC_NODE":271.4038,"ARG_OF_PERICENTER":53.2824,"MEAN_ANOMALY":306.9264,"EPHEMERIS_TYPE":0,"NORAD_CAT_ID":49949,"ELEMENT_SET_NO":999,"REV_AT_EPOCH":25849,"BSTAR":0.0003586278,"MEAN_MOTION_DOT":0.00023252,"MEAN_MOTION_DDOT":0},{"OBJECT_NAME":"GLOBAL-16","OBJECT_ID":"2021-120B","EPOCH":"2026-07-10T06:54:13.403232","CLASSIFICATION_TYPE":"U","MEAN_MOTION":15.51325662,"ECCENTRICITY":0.00118736,"INCLINATION":41.9953,"RA_OF_ASC_NODE":275.692,"ARG_OF_PERICENTER":41.7524,"MEAN_ANOMALY":318.4225,"EPHEMERIS_TYPE":0,"NORAD_CAT_ID":49950,"ELEMENT_SET_NO":999,"REV_AT_EPOCH":25843,"BSTAR":0.00034574479,"MEAN_MOTION_DOT":0.00020638,"MEAN_MOTION_DDOT":0},{"OBJECT_NAME":"GLOBAL-18","OBJECT_ID":"2022-034B","EPOCH":"2026-07-10T06:12:31.501152","CLASSIFICATION_TYPE":"U","MEAN_MOTION":15.47079635,"ECCENTRICITY":0.00043087,"INCLINATION":52.98,"RA_OF_ASC_NODE":146.3065,"ARG_OF_PERICENTER":11.3992,"MEAN_ANOMALY":348.711,"EPHEMERIS_TYPE":0,"NORAD_CAT_ID":52196,"ELEMENT_SET_NO":999,"REV_AT_EPOCH":24053,"BSTAR":0.00030601834,"MEAN_MOTION_DOT":0.00015344,"MEAN_MOTION_DDOT":0},{"OBJECT_NAME":"GLOBAL-19","OBJECT_ID":"2023-041B","EPOCH":"2026-07-09T22:51:50.896224","CLASSIFICATION_TYPE":"U","MEAN_MOTION":15.38589343,"ECCENTRICITY":0.00087792,"INCLINATION":42.0016,"RA_OF_ASC_NODE":69.0757,"ARG_OF_PERICENTER":183.2971,"MEAN_ANOMALY":176.7812,"EPHEMERIS_TYPE":0,"NORAD_CAT_ID":55982,"ELEMENT_SET_NO":999,"REV_AT_EPOCH":18543,"BSTAR":0.00025562462,"MEAN_MOTION_DOT":0.00009716,"MEAN_MOTION_DDOT":0},{"OBJECT_NAME":"GLOBAL-5","OBJECT_ID":"2023-041C","EPOCH":"2026-07-10T02:45:54.861120","CLASSIFICATION_TYPE":"U","MEAN_MOTION":15.38607292,"ECCENTRICITY":0.00076262,"INCLINATION":42.0015,"RA_OF_ASC_NODE":67.6543,"ARG_OF_PERICENTER":180.1807,"MEAN_ANOMALY":179.9031,"EPHEMERIS_TYPE":0,"NORAD_CAT_ID":55983,"ELEMENT_SET_NO":999,"REV_AT_EPOCH":18546,"BSTAR":0.00026461982,"MEAN_MOTION_DOT":0.00010072,"MEAN_MOTION_DDOT":0}]}
